[{"OBJECT_NAME":"RISING 2","OBJECT_ID":"2014-029D","EPOCH":"2026-03-09T22:49:58.395648","MEAN_MOTION":14.97431818,"ECCENTRICITY":0.00015683,"INCLINATION":97.6622,"RA_OF_ASC_NODE":139.362,"ARG_OF_PERICENTER":264.4485,"MEAN_ANOMALY":95.6558,"EPHEMERIS_TYPE":0,"CLASSIFICATION_TYPE":"U","NORAD_CAT_ID":39769,"ELEMENT_SET_NO":999,"REV_AT_EPOCH":63869,"BSTAR":0.00068568934,"MEAN_MOTION_DOT":7.926e-5,"MEAN_MOTION_DDOT":0},{"OBJECT_NAME":"STARLINK-34503","OBJECT_ID":"2025-129J","EPOCH":"2026-03-09T10:04:05.576736","MEAN_MOTION":14.98326836,"ECCENTRICITY":0.00034507,"INCLINATION":70.0009,"RA_OF_ASC_NODE":75.2643,"ARG_OF_PERICENTER":269.3596,"MEAN_ANOMALY":90.7168,"EPHEMERIS_TYPE":0,"CLASSIFICATION_TYPE":"U","NORAD_CAT_ID":64420,"ELEMENT_SET_NO":999,"REV_AT_EPOCH":4118,"BSTAR":0.00012019618,"MEAN_MOTION_DOT":1.341e-5,"MEAN_MOTION_DDOT":0}]
